H1 CPF  1  DLR 2022 04 15 10  6052 technosat            
H2  1704205 6203    42829 2022 04 15 00 00 00 2022 04 22 00 00 00    60 1 1  0 0 0
H9
10 0 59687  21600.000000  0       5908251.645       3526688.221      -1189599.254
10 0 59687  21660.000000  0       6007113.310       3481177.861       -744747.559
10 0 59687  21720.000000  0       6080283.141       3420295.666       -296745.745
10 0 59687  21780.000000  0       6127317.927       3344522.137        152511.424
10 0 59687  21840.000000  0       6147889.400       3254404.150        601123.368
10 0 59687  21900.000000  0       6141786.237       3150551.620       1047191.895
10 0 59687  21960.000000  0       6108915.470       3033633.912       1488829.377
10 0 59687  22020.000000  0       6049303.394       2904375.986       1924166.860
10 0 59687  22080.000000  0       5963095.934       2763554.270       2351362.139
10 0 59687  22140.000000  0       5850558.418       2611992.283       2768607.730
10 0 59687  22200.000000  0       5712074.726       2450556.018       3174138.635
10 0 59687  22260.000000  0       5548145.879       2280149.203       3566239.866
10 0 59687  22320.000000  0       5359388.099       2101708.417       3943253.749
10 0 59687  22380.000000  0       5146530.281       1916198.072       4303586.963
10 0 59687  22440.000000  0       4910410.959       1724605.301       4645717.080
10 0 59687  22500.000000  0       4651974.988       1527934.824       4968198.887
10 0 59687  22560.000000  0       4372269.635       1327203.800       5269670.547
10 0 59687  22620.000000  0       4072440.077       1123436.625       5548859.289
10 0 59687  22680.000000  0       3753724.469        917659.773       5804586.621
10 0 59687  22740.000000  0       3417448.625        710896.680       6035773.047
10 0 59687  22800.000000  0       3065020.416        504162.767       6241442.337
10 0 59687  22860.000000  0       2697923.877        298460.588       6420725.480
10 0 59687  22920.000000  0       2317712.943         94775.047       6572864.223
10 0 59687  22980.000000  0       1926004.885       -105931.243       6697214.145
10 0 59687  23040.000000  0       1524473.466       -302722.442       6793247.352
10 0 59687  23100.000000  0       1114841.749       -494693.827       6860554.671
10 0 59687  23160.000000  0        698874.705       -680975.930       6898847.251
10 0 59687  23220.000000  0        278371.731       -860738.407       6907957.771
10 0 59687  23280.000000  0       -144841.089      -1033193.741       6887841.227
10 0 59687  23340.000000  0       -568918.819      -1197600.707       6838575.168
10 0 59687  23400.000000  0       -992005.654      -1353267.587       6760359.504
10 0 59687  23460.000000  0      -1412242.959      -1499555.090       6653515.774
10 0 59687  23520.000000  0      -1827777.336      -1635878.986       6518485.990
10 0 59687  23580.000000  0      -2236768.702      -1761712.430       6355831.043
10 0 59687  23640.000000  0      -2637398.395      -1876588.037       6166228.737
10 0 59687  23700.000000  0      -3027877.375      -1980099.720       5950471.391
10 0 59687  23760.000000  0      -3406454.478      -2071904.217       5709462.794
10 0 59687  23820.000000  0      -3771424.421      -2151722.280       5444214.583
10 0 59687  23880.000000  0      -4121135.647      -2219339.539       5155842.259
10 0 59687  23940.000000  0      -4453998.088      -2274607.051       4845560.717
10 0 59687  24000.000000  0      -4768490.649      -2317441.478       4514679.256
10 0 59687  24060.000000  0      -5063168.426      -2347824.909       4164596.201
10 0 59687  24120.000000  0      -5336669.640      -2365804.357       3796793.121
10 0 59687  24180.000000  0      -5587722.251      -2371490.918       3412828.656
10 0 59687  24240.000000  0      -5815150.218      -2365058.604       3014331.960
10 0 59687  24300.000000  0      -6017879.358      -2346742.878       2602995.798
10 0 59687  24360.000000  0      -6194942.826      -2316838.890       2180569.296
10 0 59687  24420.000000  0      -6345486.147      -2275699.362       1748850.282
10 0 59687  24480.000000  0      -6468771.565      -2223732.107       1309677.298
10 0 59687  24540.000000  0      -6564181.776      -2161397.274        864921.543
10 0 59687  24600.000000  0      -6631223.208      -2089204.350        416478.671
10 0 59687  24660.000000  0      -6669528.739      -2007708.872        -33739.633
10 0 59687  24720.000000  0      -6678859.697      -1917508.883       -483814.205
10 0 59687  24780.000000  0      -6659107.190      -1819241.196       -931826.937
10 0 59687  24840.000000  0      -6610292.804      -1713577.481      -1375869.295
10 0 59687  24900.000000  0      -6532568.653      -1601220.168      -1814050.768
10 0 59687  24960.000000  0      -6426216.772      -1482898.230      -2244507.204
10 0 59687  25020.000000  0      -6291647.870      -1359362.868      -2665408.981
10 0 59687  25080.000000  0      -6129399.475      -1231383.098      -3074969.010
10 0 59687  25140.000000  0      -5940133.445      -1099741.282      -3471450.487
10 0 59687  25200.000000  0      -5724632.904       -965228.629      -3853174.357
10 0 59687  25260.000000  0      -5483798.607       -828640.694      -4218526.491
10 0 59687  25320.000000  0      -5218644.749       -690772.894      -4565964.488
10 0 59687  25380.000000  0      -4930294.258       -552416.094      -4894024.114
10 0 59687  25440.000000  0      -4619973.621       -414352.300      -5201325.337
10 0 59687  25500.000000  0      -4289007.232       -277350.452      -5486577.960
10 0 59687  25560.000000  0      -3938811.342       -142162.316      -5748586.764
10 0 59687  25620.000000  0      -3570887.660         -9518.547      -5986256.197
10 0 59687  25680.000000  0      -3186816.629        119875.074      -6198594.601
10 0 59687  25740.000000  0      -2788250.455        245341.218      -6384717.990
10 0 59687  25800.000000  0      -2376905.855        366234.359      -6543853.431
10 0 59687  25860.000000  0      -1954556.494        481943.911      -6675341.934
10 0 59687  25920.000000  0      -1523025.294        591897.147      -6778640.819
10 0 59687  25980.000000  0      -1084176.583        695561.936      -6853325.664
10 0 59687  26040.000000  0       -639908.090        792449.216      -6899091.745
10 0 59687  26100.000000  0       -192142.873        882115.198      -6915755.014
10 0 59687  26160.000000  0        257178.798        964163.283      -6903252.705
10 0 59687  26220.000000  0        706107.669       1038245.722      -6861643.606
10 0 59687  26280.000000  0       1152693.934       1104065.061      -6791107.826
10 0 59687  26340.000000  0       1594995.607       1161375.322      -6691945.907
10 0 59687  26400.000000  0       2031086.758       1209982.865      -6564577.588
10 0 59687  26460.000000  0       2459065.825       1249747.009      -6409540.173
10 0 59687  26520.000000  0       2877063.853       1280580.354      -6227486.289
10 0 59687  26580.000000  0       3283252.477       1302448.792      -6019181.253
10 0 59687  26640.000000  0       3675851.820       1315371.279      -5785500.122
10 0 59687  26700.000000  0       4053138.295       1319419.314      -5527424.268
10 0 59687  26760.000000  0       4413452.193       1314716.147      -5246037.536
10 0 59687  26820.000000  0       4755205.125       1301435.734      -4942521.952
10 0 59687  26880.000000  0       5076887.136       1279801.413      -4618152.928
10 0 59687  26940.000000  0       5377073.495       1250084.300      -4274294.138
10 0 59687  27000.000000  0       5654431.192       1212601.442      -3912391.989
10 0 59687  27060.000000  0       5907725.048       1167713.708      -3533969.716
10 0 59687  27120.000000  0       6135823.436       1115823.446      -3140621.159
10 0 59687  27180.000000  0       6337703.631       1057371.911      -2734004.184
10 0 59687  27240.000000  0       6512456.685        992836.502      -2315833.740
10 0 59687  27300.000000  0       6659291.784        922727.787      -1887874.629
10 0 59687  27360.000000  0       6777540.071        847586.305      -1451934.009
10 0 59687  27420.000000  0       6866657.871        767979.219      -1009853.700
10 0 59687  27480.000000  0       6926229.379        684496.818       -563502.309
10 0 59687  27540.000000  0       6955968.687        597748.930       -114767.205
10 0 59687  27600.000000  0       6955721.271        508361.246        334453.518
10 0 59687  27660.000000  0       6925464.926        416971.507        782259.232
10 0 59687  27720.000000  0       6865309.981        324225.594       1226754.987
10 0 59687  27780.000000  0       6775498.954        230773.632       1666059.686
10 0 59687  27840.000000  0       6656405.483        137266.081       2098314.303
10 0 59687  27900.000000  0       6508532.597         44349.842       2521689.840
10 0 59687  27960.000000  0       6332510.508        -47335.622       2934395.146
10 0 59687  28020.000000  0       6129093.746       -137162.165       3334684.657
10 0 59687  28080.000000  0       5899157.588       -224516.669       3720865.782
10 0 59687  28140.000000  0       5643694.156       -308804.578       4091305.958
10 0 59687  28200.000000  0       5363808.043       -389453.420       4444439.643
10 0 59687  28260.000000  0       5060711.233       -465916.255       4778774.921
10 0 59687  28320.000000  0       4735717.630       -537674.866       5092899.730
10 0 59687  28380.000000  0       4390237.045       -604242.782       5385487.704
10 0 59687  28440.000000  0       4025768.909       -665168.074       5655303.515
10 0 59687  28500.000000  0       3643895.688       -720035.971       5901207.989
10 0 59687  28560.000000  0       3246275.842       -768471.273       6122162.768
10 0 59687  28620.000000  0       2834636.518       -810140.529       6317234.462
10 0 59687  28680.000000  0       2410766.065       -844753.970       6485598.420
10 0 59687  28740.000000  0       1976506.259       -872067.205       6626542.155
99
